[{"OBJECT_NAME":"STARLINK-1329","OBJECT_ID":"2020-025A","EPOCH":"2026-03-09T07:41:14.717472","MEAN_MOTION":15.56178822,"ECCENTRICITY":0.00013748,"INCLINATION":53.05,"RA_OF_ASC_NODE":83.1377,"ARG_OF_PERICENTER":343.8694,"MEAN_ANOMALY":16.2272,"EPHEMERIS_TYPE":0,"CLASSIFICATION_TYPE":"U","NORAD_CAT_ID":45531,"ELEMENT_SET_NO":999,"REV_AT_EPOCH":32539,"BSTAR":0.0017556532,"MEAN_MOTION_DOT":0.00126679,"MEAN_MOTION_DDOT":0},{"OBJECT_NAME":"OBJECT E","OBJECT_ID":"2021-091E","EPOCH":"2026-03-09T22:43:30.874368","MEAN_MOTION":15.58552335,"ECCENTRICITY":0.00052438,"INCLINATION":97.3949,"RA_OF_ASC_NODE":285.5924,"ARG_OF_PERICENTER":328.2739,"MEAN_ANOMALY":31.82,"EPHEMERIS_TYPE":0,"CLASSIFICATION_TYPE":"U","NORAD_CAT_ID":49319,"ELEMENT_SET_NO":999,"REV_AT_EPOCH":24586,"BSTAR":0.0004489926,"MEAN_MOTION_DOT":0.00034337,"MEAN_MOTION_DDOT":0}]
